ENTRYSAT                
1 44429U 98067QP  20028.50185346  .00007295  00000-0  11326-3 0  9996
2 44429  51.6414 319.8443 0003216 147.3693 212.7497 15.55111799 32565
VCC C                   
1 44430U 98067QQ  20028.35629475  .00008965  00000-0  13534-3 0  9995
2 44430  51.6416 320.3772 0003271 156.0820 204.0323 15.55559794 31372
VCC B                   
1 44431U 98067QR  20028.01856687  .00006872  00000-0  10894-3 0  9997
2 44431  51.6420 322.6192 0003476 155.3422 204.7736 15.54640675 32426
DUCHIFAT-3              
1 44854U 19089C   20028.54671611  .00000183  00000-0  21290-4 0  9995
2 44854  36.9659 211.0143 0009241 351.9971   8.0713 14.98955969  7144
